CSS (TIANHE)            
1 48274U 21035A   24119.20746383  .00055703  00000+0  60539-3 0  9991
2 48274  41.4693  28.4046 0003840 264.5634  95.4767 15.62582751171271
